STARLINK-34822          
1 65086C 25167J   26174.69631944  .00034214  00000+0  11533-2 0  1741
2 65086  53.1595 254.6364 0001353  82.0329 320.3143 15.30170470    16
STARLINK-34686          
1 65087C 25167K   26174.66298611  .00021684  00000+0  73102-3 0  1747
2 65087  53.1596 254.7560 0001017  81.3917 154.7010 15.30172220    16
STARLINK-34594          
1 65088C 25167L   26174.64909722  .00013504  00000+0  45531-3 0  1745
2 65088  53.1598 254.7860 0001122  85.1526  91.8417 15.30172646    11
STARLINK-34665          
1 65089C 25167M   26174.72548611  .00028678  00000+0  96682-3 0  1742
2 65089  53.1592 254.3961 0001182  84.5964 170.8793 15.30168642    15
STARLINK-34673          
1 65090C 25167N   26174.70118056  .00035824  00000+0  12077-2 0  1744
2 65090  53.1591 254.4738 0000955 329.5381 169.4233 15.30165614    10
STARLINK-34648          
1 65091C 25167P   26174.72965278  .00034822  00000+0  10291-2 0  1746
2 65091  53.1592 248.9331 0000778  83.2990  69.8430 15.34366762    15
STARLINK-34640          
1 65092C 25167Q   26174.69423611  .00035420  00000+0  11941-2 0  1741
2 65092  53.1592 254.4583 0001187  78.0619  45.8892 15.30165756    14
STARLINK-34266          
1 65093C 25167R   26174.59562500 -.01855800  00000+0 -42774-1 0  1744
2 65093  53.1598 249.5114 0001431  62.0332  94.6591 15.42939517    18
STARLINK-34769          
1 65094C 25167S   26174.67201389  .00048791  00000+0  14419-2 0  1745
2 65094  53.1587 249.2940 0001126  54.6663  93.3990 15.34359697    11
STARLINK-34768          
1 65095C 25167T   26174.61229167  .00002608  00000+0  77066-4 0  1740
2 65095  53.1586 249.5498 0001027  83.2106 106.4196 15.34379993    17
STARLINK-34759          
1 65096C 25167U   26174.71229167  .00039726  00000+0  11739-2 0  1746
2 65096  53.1580 249.0589 0001288  89.8607 304.0744 15.34365267    19
STARLINK-34741          
1 65097C 25167V   26174.72826389  .00031459  00000+0  92968-3 0  1746
2 65097  53.1579 248.9596 0000888  83.4985  50.3478 15.34367433    10
STARLINK-34764          
1 65098C 25167W   26174.71368056  .00027936  00000+0  82562-3 0  1742
2 65098  53.1576 252.5122 0001033  78.3243  15.6272 15.34367375    18
STARLINK-34815          
1 65099C 25167X   26174.67201389 -.00033676  00000+0 -99576-3 0  1746
2 65099  53.1583 252.6381 0001228  82.2120 176.2857 15.34382354    16
STARLINK-34814          
1 65100C 25167Y   26174.71229167  .00046974  00000+0  13881-2 0  1745
2 65100  53.1576 252.6562 0001062  78.4182 298.0850 15.34361676    13
STARLINK-34285          
1 65101C 25167Z   26174.69701389  .00037357  00000+0  11041-2 0  1745
2 65101  53.1587 252.9549 0001165  82.7578  93.0342 15.34361430    12
STARLINK-34857          
1 65102C 25167AA  26174.67409722  .00042476  00000+0  12555-2 0  1749
2 65102  53.1582 249.3053 0001207  87.6049  60.3663 15.34356223    19
STARLINK-34887          
1 65103C 25167AB  26174.63729167  .00033932  00000+0  10028-2 0  1744
2 65103  53.1594 253.3014 0001301  69.0799 101.7228 15.34364670    18
STARLINK-34481          
1 65104C 25167AC  26174.68243056  .00050336  00000+0  14875-2 0  1749
2 65104  53.1580 249.0583 0000978  87.0073 211.6667 15.34360131    17
STARLINK-34545          
1 65105C 25167AD  26174.74909722  .00014736  00000+0  43557-3 0  1740
2 65105  53.1579 248.7688 0000574  73.1962 222.3109 15.34370387    17
STARLINK-34956          
1 65174C 25175A   26174.71159722 -.00042788  00000+0 -29708-2 0  1740
2 65174  97.3197  45.8662 0002117  86.0359  94.8374 15.05677805    14
STARLINK-34949          
1 65175C 25175B   26174.69909722 -.00054536  00000+0 -37862-2 0  1745
2 65175  97.3199  45.8606 0002059  64.6340  63.5231 15.05686737    11
STARLINK-34707          
1 65176C 25175C   26174.62618056  .00016243  00000+0  11277-2 0  1749
2 65176  97.3204  45.7975 0002237  80.6797  27.5255 15.05648001    17
STARLINK-34967          
1 65177C 25175D   26174.74979167 -.00059629  00000+0 -41403-2 0  1747
2 65177  97.3198  45.9215 0002087  86.0777 346.6861 15.05684641    18
STARLINK-34929          
1 65178C 25175E   26174.62479167  .00024246  00000+0  16832-2 0  1743
2 65178  97.3204  45.8101 0002019  81.6283  49.0246 15.05647925    13
STARLINK-34932          
1 65179C 25175F   26174.74354167 -.00055922  00000+0 -38832-2 0  1740
2 65179  97.3199  45.9357 0001825  87.6391 356.2630 15.05680024    18
STARLINK-34862          
1 65180C 25175G   26174.64006944  .00017191  00000+0  11935-2 0  1747
2 65180  97.3208  45.8440 0002301  75.1249 183.2732 15.05649556    13
STARLINK-34942          
1 65181C 25175H   26174.67965278 -.00020553  00000+0 -14270-2 0  1748
2 65181  97.3201  45.8688 0001792  88.0651 354.7589 15.05668149    18
STARLINK-34944          
1 65182C 25175J   26174.59701389  .00026539  00000+0  18427-2 0  1747
2 65182  97.3210  45.8099 0001909  86.2191 313.9583 15.05640418    14
STARLINK-34939          
1 65183C 25175K   26174.68659722 -.00029214  00000+0 -20284-2 0  1740
2 65183  97.3200  45.9012 0001889  83.2007  97.2281 15.05670721    17
STARLINK-34947          
1 65184C 25175L   26174.61645833  .00032071  00000+0  22263-2 0  1744
2 65184  97.3202  45.8416 0002159  86.5185  88.9759 15.05645636    15
STARLINK-34945          
1 65185C 25175M   26174.71715278 -.00045345  00000+0 -31485-2 0  1743
2 65185  97.3195  45.9429 0002503  84.2093 291.7311 15.05676465    10
STARLINK-34965          
1 65186C 25175N   26174.63243056  .00018520  00000+0  12859-2 0  1742
2 65186  97.3200  45.8758 0002935  78.0621 228.8604 15.05643039    16
STARLINK-34915          
1 65187C 25175P   26174.67340278 -.00013864  00000+0 -96238-3 0  1743
2 65187  97.3199  45.9086 0002823  83.0116  70.9321 15.05670265    13
STARLINK-34972          
1 65188C 25175Q   26174.72201389 -.00052376  00000+0 -36364-2 0  1743
2 65188  97.3196  45.9674 0002652  88.6470 358.6165 15.05682749    10
STARLINK-34866          
1 65189C 25175R   26174.60673611  .00041890  00000+0  29090-2 0  1747
2 65189  97.3201  45.8644 0002873  85.9815 111.8203 15.05626323    10
STARLINK-34917          
1 65190C 25175S   26174.72409722 -.00049283  00000+0 -34218-2 0  1746
2 65190  97.3196  45.9820 0002689  82.7661  45.7781 15.05679534    19
STARLINK-34948          
1 65191C 25175T   26174.74006944 -.00057039  00000+0 -39600-2 0  1746
2 65191  97.3195  45.9993 0003284  85.2864 144.7734 15.05685196    14
STARLINK-34955          
1 65192C 25175U   26174.61229167  .00032224  00000+0  22366-2 0  1745
2 65192  97.3201  45.8895 0002974  89.6730 183.1401 15.05650363    14
STARLINK-34950          
1 65193C 25175V   26174.68034722 -.00022115  00000+0 -15355-2 0  1744
2 65193  97.3197  45.9604 0002400  81.3016 215.2449 15.05666982    11
STARLINK-34926          
1 65194C 25175W   26174.74493056 -.00055023  00000+0 -38215-2 0  1745
2 65194  97.3196  46.0472 0002287  88.4774 257.8478 15.05672043    17
STARLINK-34928          
1 65195C 25175X   26174.69631944 -.00041840  00000+0 -29050-2 0  1749
2 65195  97.3199  45.9950 0002306  73.7991 354.2570 15.05677063    12
STARLINK-34927          
1 65196C 25175Y   26174.74076389 -.00058707  00000+0 -40773-2 0  1747
2 65196  97.3195  46.0243 0002343  89.2430 189.5310 15.05673969    19
STARLINK-34952          
1 65197C 25175Z   26174.73590278 -.00054833  00000+0 -38071-2 0  1749
2 65197  97.3197  46.0258 0002633  77.9194 189.5564 15.05682917    15
STARLINK-34981          
1 65198C 25176A   26174.73937500 -.00105930  00000+0 -35675-2 0  1746
2 65198  53.1599  23.0027 0001696  98.2029  10.9829 15.30266979    17
STARLINK-34821          
1 65199C 25176B   26174.65395833 -.00014946  00000+0 -44124-3 0  1741
2 65199  53.1595  18.7526 0001171  86.3616 116.6371 15.34421981    13
STARLINK-34865          
1 65200C 25176C   26174.66159722 -.00005424  00000+0 -16018-3 0  1742
2 65200  53.1594  19.2698 0001243 100.7152 225.4183 15.34411307    18
STARLINK-34843          
1 65201C 25176D   26174.65187500 -.00007764  00000+0 -22927-3 0  1742
2 65201  53.1602  18.9160 0001138  93.2117  16.8813 15.34412097    18
STARLINK-34905          
1 65202C 25176E   26174.72687500 -.00069595  00000+0 -20554-2 0  1749
2 65202  53.1600  18.5912 0001134  87.9752  65.0002 15.34438625    10
STARLINK-34914          
1 65203C 25176F   26174.65881944 -.00008954  00000+0 -26439-3 0  1741
2 65203  53.1605  18.8623 0001217  90.0435  70.0549 15.34415681    12
STARLINK-34787          
1 65204C 25176G   26174.71368056 -.00044609  00000+0 -13178-2 0  1745
2 65204  53.1599  18.4458 0001184  84.0405 100.6633 15.34418460    12
STARLINK-34796          
1 65205C 25176H   26174.67965278 -.00006231  00000+0 -18419-3 0  1743
2 65205  53.1595  19.0214 0001123  71.0453  76.3267 15.34379854    13
STARLINK-34763          
1 65206C 25176J   26174.68173611 -.00026689  00000+0 -78801-3 0  1747
2 65206  53.1597  18.9630 0001106  97.7438  84.3600 15.34425509    14
STARLINK-34901          
1 65207C 25176K   26174.63729167 -.00004073  00000+0 -12029-3 0  1749
2 65207  53.1590  19.3319 0001297  96.0471 119.0128 15.34406547    19
STARLINK-34841          
1 65208C 25176L   26174.73798611 -.00066154  00000+0 -19541-2 0  1744
2 65208  53.1598  18.4763 0001203  92.8906 156.3883 15.34431547    15
STARLINK-34976          
1 65209C 25176M   26174.67548611 -.00020628  00000+0 -60913-3 0  1747
2 65209  53.1596  18.9658 0001077  98.7304  60.4580 15.34417777    16
STARLINK-34941          
1 65210C 25176N   26174.72548611 -.00052351  00000+0 -15458-2 0  1746
2 65210  53.1592  18.8987 0001131  93.2239 260.9086 15.34434860    16
STARLINK-34847          
1 65211C 25176P   26174.66090278 -.00006388  00000+0 -21522-3 0  1740
2 65211  53.1591  20.5165 0001069  89.2859 316.7153 15.30207119    13
STARLINK-34897          
1 65212C 25176Q   26174.73520833 -.00062970  00000+0 -18601-2 0  1746
2 65212  53.1596  18.6200 0001233  95.4266  68.7333 15.34428820    13
